{"type":"FeatureCollection","features":[{"type":"Feature","properties":{"codigo_comuna":"13101","comuna":"Santiago","provincia":"Santiago","codigo_region":"13","region":"Región Metropolitana de Santiago"},"geometry":{"type":"MultiPolygon","coordinates":[[[[-70.6517,-33.4319],[-70.6774,-33.4266],[-70.6809,-33.436],[-70.6916,-33.4392],[-70.6918,-33.4445],[-70.6796,-33.4438],[-70.6798,-33.4707],[-70.6729,-33.4706],[-70.6724,-33.4765],[-70.6808,-33.4784],[-70.6268,-33.4716],[-70.6354,-33.4357],[-70.6517,-33.4319]]]]}},{"type":"Feature","properties":{"codigo_comuna":"13102","comuna":"Cerrillos","provincia":"Santiago","codigo_region":"13","region":"Región Metropolitana de Santiago"},"geometry":{"type":"MultiPolygon","coordinates":[[[[-70.6864,-33.4763],[-70.7125,-33.4812],[-70.7219,-33.4733],[-70.7244,-33.4823],[-70.7313,-33.4825],[-70.7399,-33.5101],[-70.7243,-33.5085],[-70.7183,-33.5138],[-70.7264,-33.5239],[-70.7063,-33.5314],[-70.6855,-33.4794],[-70.6864,-33.4763]]]]}},{"type":"Feature","properties":{"codigo_comuna":"13103","comuna":"Cerro Navia","provincia":"Santiago","codigo_region":"13","region":"Región Metropolitana de Santiago"},"geometry":{"type":"MultiPolygon","coordinates":[[[[-70.7215,-33.4366],[-70.7159,-33.4152],[-70.7226,-33.4117],[-70.7824,-33.4139],[-70.7759,-33.4241],[-70.7243,-33.4378],[-70.7215,-33.4366]]]]}},{"type":"Feature","properties":{"codigo_comuna":"13104","comuna":"Conchalí","provincia":"Santiago","codigo_region":"13","region":"Región Metropolitana de Santiago"},"geometry":{"type":"MultiPolygon","coordinates":[[[[-70.6897,-33.3659],[-70.7003,-33.3662],[-70.6819,-33.403],[-70.6582,-33.4005],[-70.6569,-33.3761],[-70.682,-33.3667],[-70.6897,-33.3659]]]]}},{"type":"Feature","properties":{"codigo_comuna":"13105","comuna":"El Bosque","provincia":"Santiago","codigo_region":"13","region":"Región Metropolitana de Santiago"},"geometry":{"type":"MultiPolygon","coordinates":[[[[-70.6535,-33.5488],[-70.6852,-33.5391],[-70.7012,-33.5737],[-70.6633,-33.5852],[-70.6549,-33.555],[-70.6535,-33.5488]]]]}},{"type":"Feature","properties":{"codigo_comuna":"13106","comuna":"Estación Central","provincia":"Santiago","codigo_region":"13","region":"Región Metropolitana de Santiago"},"geometry":{"type":"MultiPolygon","coordinates":[[[[-70.6807,-33.4765],[-70.6724,-33.4765],[-70.6729,-33.4706],[-70.6798,-33.4707],[-70.6796,-33.4438],[-70.7072,-33.4488],[-70.7056,-33.4572],[-70.7313,-33.455],[-70.7338,-33.4696],[-70.7125,-33.4812],[-70.6864,-33.4763],[-70.6807,-33.4765]]]]}},{"type":"Feature","properties":{"codigo_comuna":"13107","comuna":"Huechuraba","provincia":"Santiago","codigo_region":"13","region":"Región Metropolitana de Santiago"},"geometry":{"type":"MultiPolygon","coordinates":[[[[-70.5959,-33.3366],[-70.6393,-33.3426],[-70.6578,-33.3284],[-70.6812,-33.3307],[-70.68,-33.338],[-70.6928,-33.353],[-70.6897,-33.3659],[-70.6399,-33.3833],[-70.61,-33.4055],[-70.5974,-33.3713],[-70.6,-33.3625],[-70.5823,-33.3507],[-70.5902,-33.3398],[-70.5959,-33.3366]]]]}},{"type":"Feature","properties":{"codigo_comuna":"13108","comuna":"Independencia","provincia":"Santiago","codigo_region":"13","region":"Región Metropolitana de Santiago"},"geometry":{"type":"MultiPolygon","coordinates":[[[[-70.6582,-33.4005],[-70.6819,-33.403],[-70.6713,-33.4261],[-70.6517,-33.4319],[-70.6501,-33.4178],[-70.6572,-33.4052],[-70.6582,-33.4005]]]]}},{"type":"Feature","properties":{"codigo_comuna":"13109","comuna":"La Cisterna","provincia":"Santiago","codigo_region":"13","region":"Región Metropolitana de Santiago"},"geometry":{"type":"MultiPolygon","coordinates":[[[[-70.6535,-33.5488],[-70.6446,-33.5174],[-70.671,-33.5108],[-70.6853,-33.5391],[-70.6666,-33.5464],[-70.6535,-33.5488]]]]}},{"type":"Feature","properties":{"codigo_comuna":"13110","comuna":"La Florida","provincia":"Santiago","codigo_region":"13","region":"Región Metropolitana de Santiago"},"geometry":{"type":"MultiPolygon","coordinates":[[[[-70.59,-33.5103],[-70.5391,-33.512],[-70.4984,-33.4977],[-70.4862,-33.5015],[-70.4665,-33.4913],[-70.4515,-33.4959],[-70.4374,-33.4922],[-70.4371,-33.4977],[-70.465,-33.5169],[-70.4877,-33.5434],[-70.5304,-33.5435],[-70.5462,-33.5512],[-70.5682,-33.5476],[-70.5575,-33.5607],[-70.6113,-33.5702],[-70.6138,-33.5082],[-70.59,-33.5103]]]]}},{"type":"Feature","properties":{"codigo_comuna":"13111","comuna":"La Granja","provincia":"Santiago","codigo_region":"13","region":"Región Metropolitana de Santiago"},"geometry":{"type":"MultiPolygon","coordinates":[[[[-70.6122,-33.5557],[-70.6113,-33.513],[-70.6199,-33.5144],[-70.6367,-33.5188],[-70.6308,-33.5598],[-70.6122,-33.5557]]]]}},{"type":"Feature","properties":{"codigo_comuna":"13112","comuna":"La Pintana","provincia":"Santiago","codigo_region":"13","region":"Región Metropolitana de Santiago"},"geometry":{"type":"MultiPolygon","coordinates":[[[[-70.6311,-33.5581],[-70.6549,-33.555],[-70.6707,-33.6074],[-70.6432,-33.6099],[-70.6447,-33.6272],[-70.6286,-33.6274],[-70.6269,-33.6046],[-70.6052,-33.6017],[-70.6122,-33.5557],[-70.6308,-33.5598],[-70.6311,-33.5581]]]]}},{"type":"Feature","properties":{"codigo_comuna":"13113","comuna":"La Reina","provincia":"Santiago","codigo_region":"13","region":"Región Metropolitana de Santiago"},"geometry":{"type":"MultiPolygon","coordinates":[[[[-70.4863,-33.4613],[-70.503,-33.4388],[-70.5397,-33.429],[-70.5845,-33.4317],[-70.5736,-33.4379],[-70.5724,-33.459],[-70.5313,-33.4655],[-70.5294,-33.4591],[-70.4863,-33.4613]]]]}},{"type":"Feature","properties":{"codigo_comuna":"13114","comuna":"Las Condes","provincia":"Santiago","codigo_region":"13","region":"Región Metropolitana de Santiago"},"geometry":{"type":"MultiPolygon","coordinates":[[[[-70.4338,-33.4811],[-70.4347,-33.4686],[-70.4274,-33.4591],[-70.4333,-33.4298],[-70.4523,-33.417],[-70.4542,-33.3972],[-70.4755,-33.3943],[-70.4833,-33.3768],[-70.4778,-33.3644],[-70.5176,-33.3727],[-70.5338,-33.384],[-70.6054,-33.4092],[-70.6075,-33.4158],[-70.5845,-33.4317],[-70.5397,-33.429],[-70.508,-33.4361],[-70.4715,-33.4754],[-70.4389,-33.486],[-70.4338,-33.4811]]]]}},{"type":"Feature","properties":{"codigo_comuna":"13115","comuna":"Lo Barnechea","provincia":"Santiago","codigo_region":"13","region":"Región Metropolitana de Santiago"},"geometry":{"type":"MultiPolygon","coordinates":[[[[-70.2429,-33.1869],[-70.2659,-33.1813],[-70.2706,-33.1331],[-70.2929,-33.1285],[-70.2996,-33.1134],[-70.3222,-33.1027],[-70.3421,-33.097],[-70.352,-33.1055],[-70.3726,-33.1058],[-70.3985,-33.1216],[-70.4164,-33.1232],[-70.4335,-33.1371],[-70.4616,-33.1769],[-70.4594,-33.1887],[-70.468,-33.1968],[-70.4701,-33.2168],[-70.5084,-33.2187],[-70.5222,-33.2376],[-70.558,-33.241],[-70.5598,-33.2514],[-70.5733,-33.265],[-70.5753,-33.2886],[-70.6046,-33.3104],[-70.5959,-33.3366],[-70.5823,-33.3507],[-70.552,-33.3581],[-70.5402,-33.3704],[-70.5176,-33.3727],[-70.4778,-33.3644],[-70.4833,-33.3768],[-70.4755,-33.3943],[-70.4542,-33.3972],[-70.4523,-33.417],[-70.4333,-33.4298],[-70.4274,-33.4591],[-70.4347,-33.4686],[-70.4338,-33.4811],[-70.3937,-33.4906],[-70.3727,-33.4828],[-70.3506,-33.4906],[-70.3345,-33.4767],[-70.3046,-33.4645],[-70.2975,-33.4517],[-70.2816,-33.4554],[-70.2432,-33.436],[-70.219,-33.4122],[-70.2144,-33.3959],[-70.2032,-33.3914],[-70.1918,-33.3666],[-70.1772,-33.3557],[-70.1823,-33.3209],[-70.1993,-33.2903],[-70.1982,-33.2723],[-70.2229,-33.2321],[-70.2184,-33.2171],[-70.2373,-33.2016],[-70.2398,-33.1921],[-70.2429,-33.1869]]]]}},{"type":"Feature","properties":{"codigo_comuna":"13116","comuna":"Lo Espejo","provincia":"Santiago","codigo_region":"13","region":"Región Metropolitana de Santiago"},"geometry":{"type":"MultiPolygon","coordinates":[[[[-70.671,-33.5108],[-70.6952,-33.502],[-70.7063,-33.5314],[-70.6853,-33.5391],[-70.671,-33.5108]]]]}},{"type":"Feature","properties":{"codigo_comuna":"13117","comuna":"Lo Prado","provincia":"Santiago","codigo_region":"13","region":"Región Metropolitana de Santiago"},"geometry":{"type":"MultiPolygon","coordinates":[[[[-70.7215,-33.4366],[-70.7409,-33.4364],[-70.739,-33.4535],[-70.7138,-33.4584],[-70.7056,-33.4572],[-70.7071,-33.4381],[-70.7215,-33.4366]]]]}},{"type":"Feature","properties":{"codigo_comuna":"13118","comuna":"Macul","provincia":"Santiago","codigo_region":"13","region":"Región Metropolitana de Santiago"},"geometry":{"type":"MultiPolygon","coordinates":[[[[-70.59,-33.5103],[-70.5766,-33.4695],[-70.623,-33.4749],[-70.6138,-33.5082],[-70.59,-33.5103]]]]}},{"type":"Feature","properties":{"codigo_comuna":"13119","comuna":"Maipú","provincia":"Santiago","codigo_region":"13","region":"Región Metropolitana de Santiago"},"geometry":{"type":"MultiPolygon","coordinates":[[[[-70.7338,-33.4696],[-70.7648,-33.4592],[-70.8062,-33.4608],[-70.8402,-33.4665],[-70.8481,-33.4786],[-70.8906,-33.478],[-70.923,-33.4892],[-70.9278,-33.5081],[-70.9038,-33.5106],[-70.8758,-33.5318],[-70.8184,-33.5379],[-70.8043,-33.5309],[-70.8157,-33.5435],[-70.7832,-33.5679],[-70.7669,-33.5713],[-70.7183,-33.5138],[-70.7243,-33.5085],[-70.7399,-33.5101],[-70.7313,-33.4825],[-70.7244,-33.4823],[-70.7219,-33.4733],[-70.7338,-33.4696]]]]}},{"type":"Feature","properties":{"codigo_comuna":"13120","comuna":"Ñuñoa","provincia":"Santiago","codigo_region":"13","region":"Región Metropolitana de Santiago"},"geometry":{"type":"MultiPolygon","coordinates":[[[[-70.5724,-33.459],[-70.5736,-33.4379],[-70.5822,-33.4338],[-70.5928,-33.4478],[-70.6316,-33.4498],[-70.623,-33.4749],[-70.5766,-33.4695],[-70.5724,-33.459]]]]}},{"type":"Feature","properties":{"codigo_comuna":"13121","comuna":"Pedro Aguirre Cerda","provincia":"Santiago","codigo_region":"13","region":"Región Metropolitana de Santiago"},"geometry":{"type":"MultiPolygon","coordinates":[[[[-70.671,-33.5108],[-70.6549,-33.4765],[-70.6864,-33.4763],[-70.6952,-33.502],[-70.671,-33.5108]]]]}},{"type":"Feature","properties":{"codigo_comuna":"13122","comuna":"Peñalolén","provincia":"Santiago","codigo_region":"13","region":"Región Metropolitana de Santiago"},"geometry":{"type":"MultiPolygon","coordinates":[[[[-70.4863,-33.4613],[-70.5294,-33.4591],[-70.5313,-33.4655],[-70.5724,-33.459],[-70.59,-33.5103],[-70.5391,-33.512],[-70.4984,-33.4977],[-70.4862,-33.5015],[-70.4665,-33.4913],[-70.4515,-33.4959],[-70.4374,-33.4922],[-70.4389,-33.486],[-70.4715,-33.4754],[-70.4863,-33.4633],[-70.4863,-33.4613]]]]}},{"type":"Feature","properties":{"codigo_comuna":"13123","comuna":"Providencia","provincia":"Santiago","codigo_region":"13","region":"Región Metropolitana de Santiago"},"geometry":{"type":"MultiPolygon","coordinates":[[[[-70.6054,-33.4092],[-70.6318,-33.4215],[-70.6362,-33.4306],[-70.6316,-33.4498],[-70.5928,-33.4478],[-70.5822,-33.4338],[-70.6075,-33.4158],[-70.6054,-33.4092]]]]}},{"type":"Feature","properties":{"codigo_comuna":"13124","comuna":"Pudahuel","provincia":"Santiago","codigo_region":"13","region":"Región Metropolitana de Santiago"},"geometry":{"type":"MultiPolygon","coordinates":[[[[-70.7568,-33.3835],[-70.8038,-33.3509],[-70.8395,-33.3851],[-70.9098,-33.3682],[-70.9428,-33.3814],[-70.9517,-33.4009],[-70.946,-33.4216],[-70.9553,-33.4463],[-70.9484,-33.469],[-70.9318,-33.4749],[-70.9199,-33.488],[-70.8906,-33.478],[-70.8481,-33.4786],[-70.8402,-33.4665],[-70.8062,-33.4608],[-70.7648,-33.4592],[-70.7372,-33.4711],[-70.7314,-33.4682],[-70.7409,-33.4299],[-70.7759,-33.4241],[-70.7822,-33.4171],[-70.7809,-33.4039],[-70.7568,-33.3835]]]]}},{"type":"Feature","properties":{"codigo_comuna":"13125","comuna":"Quilicura","provincia":"Santiago","codigo_region":"13","region":"Región Metropolitana de Santiago"},"geometry":{"type":"MultiPolygon","coordinates":[[[[-70.6812,-33.3307],[-70.7089,-33.3179],[-70.7885,-33.3402],[-70.7979,-33.3377],[-70.8038,-33.3509],[-70.7487,-33.3896],[-70.7175,-33.3926],[-70.694,-33.3834],[-70.7003,-33.3662],[-70.6897,-33.3659],[-70.6928,-33.353],[-70.68,-33.338],[-70.6812,-33.3307]]]]}},{"type":"Feature","properties":{"codigo_comuna":"13126","comuna":"Quinta Normal","provincia":"Santiago","codigo_region":"13","region":"Región Metropolitana de Santiago"},"geometry":{"type":"MultiPolygon","coordinates":[[[[-70.6714,-33.4264],[-70.7047,-33.4079],[-70.7226,-33.4117],[-70.7159,-33.4152],[-70.7215,-33.4366],[-70.7071,-33.4381],[-70.7072,-33.4488],[-70.692,-33.448],[-70.6916,-33.4392],[-70.6809,-33.436],[-70.6774,-33.4266],[-70.6718,-33.4283],[-70.6714,-33.4264]]]]}},{"type":"Feature","properties":{"codigo_comuna":"13127","comuna":"Recoleta","provincia":"Santiago","codigo_region":"13","region":"Región Metropolitana de Santiago"},"geometry":{"type":"MultiPolygon","coordinates":[[[[-70.61,-33.4055],[-70.6569,-33.3761],[-70.6517,-33.4319],[-70.6354,-33.4357],[-70.6318,-33.4215],[-70.6138,-33.4092],[-70.61,-33.4055]]]]}},{"type":"Feature","properties":{"codigo_comuna":"13128","comuna":"Renca","provincia":"Santiago","codigo_region":"13","region":"Región Metropolitana de Santiago"},"geometry":{"type":"MultiPolygon","coordinates":[[[[-70.6819,-33.403],[-70.6936,-33.3813],[-70.7175,-33.3926],[-70.7366,-33.3932],[-70.7568,-33.3835],[-70.7809,-33.4039],[-70.7824,-33.4139],[-70.7047,-33.4079],[-70.6714,-33.4264],[-70.6781,-33.4191],[-70.6819,-33.403]]]]}},{"type":"Feature","properties":{"codigo_comuna":"13129","comuna":"San Joaquín","provincia":"Santiago","codigo_region":"13","region":"Región Metropolitana de Santiago"},"geometry":{"type":"MultiPolygon","coordinates":[[[[-70.623,-33.4749],[-70.6251,-33.4696],[-70.642,-33.4765],[-70.6366,-33.5188],[-70.6113,-33.513],[-70.6138,-33.5082],[-70.623,-33.4749]]]]}},{"type":"Feature","properties":{"codigo_comuna":"13130","comuna":"San Miguel","provincia":"Santiago","codigo_region":"13","region":"Región Metropolitana de Santiago"},"geometry":{"type":"MultiPolygon","coordinates":[[[[-70.6366,-33.5188],[-70.642,-33.4765],[-70.6549,-33.4765],[-70.671,-33.5108],[-70.6367,-33.5188],[-70.6366,-33.5188]]]]}},{"type":"Feature","properties":{"codigo_comuna":"13131","comuna":"San Ramón","provincia":"Santiago","codigo_region":"13","region":"Región Metropolitana de Santiago"},"geometry":{"type":"MultiPolygon","coordinates":[[[[-70.6367,-33.5188],[-70.6446,-33.5174],[-70.6549,-33.555],[-70.6311,-33.5581],[-70.6343,-33.5426],[-70.6367,-33.5188]]]]}},{"type":"Feature","properties":{"codigo_comuna":"13132","comuna":"Vitacura","provincia":"Santiago","codigo_region":"13","region":"Región Metropolitana de Santiago"},"geometry":{"type":"MultiPolygon","coordinates":[[[[-70.5176,-33.3727],[-70.5402,-33.3704],[-70.552,-33.3581],[-70.5823,-33.3507],[-70.5922,-33.3553],[-70.6,-33.3625],[-70.6013,-33.3873],[-70.6138,-33.4092],[-70.5862,-33.404],[-70.5275,-33.3774],[-70.5176,-33.3727]]]]}},{"type":"Feature","properties":{"codigo_comuna":"13201","comuna":"Puente Alto","provincia":"Cordillera","codigo_region":"13","region":"Región Metropolitana de Santiago"},"geometry":{"type":"MultiPolygon","coordinates":[[[[-70.4877,-33.5434],[-70.5304,-33.5435],[-70.5462,-33.5512],[-70.5682,-33.5476],[-70.5575,-33.5607],[-70.6125,-33.5704],[-70.6052,-33.6017],[-70.6269,-33.6046],[-70.6314,-33.6453],[-70.5813,-33.6346],[-70.5654,-33.6204],[-70.5192,-33.6165],[-70.5004,-33.6089],[-70.5007,-33.5725],[-70.486,-33.5465],[-70.4877,-33.5434]]]]}},{"type":"Feature","properties":{"codigo_comuna":"13202","comuna":"Pirque","provincia":"Cordillera","codigo_region":"13","region":"Región Metropolitana de Santiago"},"geometry":{"type":"MultiPolygon","coordinates":[[[[-70.4338,-33.8536],[-70.4088,-33.8358],[-70.4029,-33.8131],[-70.4073,-33.7765],[-70.3992,-33.7496],[-70.4042,-33.7305],[-70.4,-33.7123],[-70.4334,-33.6956],[-70.4408,-33.6823],[-70.4319,-33.6739],[-70.4321,-33.6646],[-70.4075,-33.6471],[-70.4231,-33.6355],[-70.4278,-33.6199],[-70.4363,-33.6209],[-70.4438,-33.5787],[-70.4607,-33.5815],[-70.46,-33.5908],[-70.4784,-33.5899],[-70.5087,-33.6131],[-70.5654,-33.6204],[-70.5813,-33.6346],[-70.6025,-33.6414],[-70.6298,-33.6415],[-70.6556,-33.6765],[-70.6441,-33.6982],[-70.6268,-33.7076],[-70.6156,-33.7224],[-70.5961,-33.7807],[-70.5598,-33.7846],[-70.535,-33.8003],[-70.5368,-33.8096],[-70.525,-33.8322],[-70.4868,-33.8307],[-70.4752,-33.8484],[-70.4741,-33.8624],[-70.437,-33.8513],[-70.4338,-33.8536]]]]}},{"type":"Feature","properties":{"codigo_comuna":"13203","comuna":"San José de Maipo","provincia":"Cordillera","codigo_region":"13","region":"Región Metropolitana de Santiago"},"geometry":{"type":"MultiPolygon","coordinates":[[[[-70.4338,-33.8536],[-70.4188,-33.8563],[-70.3988,-33.8799],[-70.3746,-33.8849],[-70.3685,-33.9063],[-70.3786,-33.919],[-70.3763,-33.928],[-70.3653,-33.9451],[-70.3462,-33.9578],[-70.3497,-33.971],[-70.3294,-33.9813],[-70.3211,-34.0002],[-70.3276,-34.0102],[-70.3214,-34.0163],[-70.3443,-34.0397],[-70.3371,-34.0558],[-70.3149,-34.0572],[-70.3079,-34.0669],[-70.2864,-34.0588],[-70.2616,-34.0712],[-70.2481,-34.0573],[-70.2438,-34.0341],[-70.1839,-34.0331],[-70.1694,-34.0452],[-70.1749,-34.0587],[-70.1587,-34.0932],[-70.1639,-34.1015],[-70.1417,-34.1207],[-70.1613,-34.1339],[-70.1635,-34.1596],[-70.154,-34.161],[-70.1475,-34.1799],[-70.1359,-34.188],[-70.1184,-34.1894],[-70.1149,-34.201],[-70.0939,-34.204],[-70.0777,-34.1982],[-70.0717,-34.2025],[-70.0504,-34.2265],[-70.0528,-34.2801],[-70.0301,-34.2887],[-70.003,-34.2613],[-69.9871,-34.2611],[-69.9708,-34.2499],[-69.9521,-34.262],[-69.9406,-34.2798],[-69.9088,-34.2909],[-69.8978,-34.2847],[-69.897,-34.2657],[-69.8675,-34.2656],[-69.8541,-34.2561],[-69.828,-34.2563],[-69.825,-34.2496],[-69.806,-34.2468],[-69.8059,-34.225],[-69.7974,-34.2102],[-69.8012,-34.1934],[-69.8365,-34.1585],[-69.8698,-34.1411],[-69.8729,-34.1339],[-69.8713,-34.1255],[-69.8562,-34.1135],[-69.8601,-34.104],[-69.8344,-34.0865],[-69.8331,-34.0709],[-69.8479,-34.0687],[-69.8537,-34.0552],[-69.8218,-34.016],[-69.8393,-34.0077],[-69.8411,-33.992],[-69.857,-33.9633],[-69.8758,-33.9653],[-69.8823,-33.9766],[-69.9055,-33.9647],[-69.8921,-33.9404],[-69.8907,-33.9211],[-69.8756,-33.914],[-69.8554,-33.8922],[-69.8676,-33.8813],[-69.8732,-33.8608],[-69.899,-33.8451],[-69.8923,-33.7926],[-69.9041,-33.7724],[-69.8993,-33.7583],[-69.8762,-33.7376],[-69.8642,-33.7164],[-69.8843,-33.6837],[-69.8794,-33.6588],[-69.87,-33.6519],[-69.8787,-33.6476],[-69.874,-33.6351],[-69.8808,-33.6185],[-69.8657,-33.5874],[-69.8741,-33.5558],[-69.8715,-33.5394],[-69.8353,-33.5153],[-69.8299,-33.4807],[-69.8151,-33.4692],[-69.8213,-33.4593],[-69.8145,-33.4421],[-69.818,-33.4292],[-69.7957,-33.4216],[-69.8001,-33.4052],[-69.8128,-33.3924],[-69.7989,-33.3944],[-69.7842,-33.3881],[-69.77,-33.357],[-69.7719,-33.3412],[-69.7999,-33.288],[-69.8144,-33.2891],[-69.8406,-33.2717],[-69.8597,-33.2832],[-69.904,-33.2729],[-69.9166,-33.2442],[-69.9212,-33.2461],[-69.915,-33.2562],[-69.9173,-33.2673],[-69.9428,-33.2845],[-69.9496,-33.2815],[-69.9653,-33.2963],[-69.9699,-33.3095],[-70.0029,-33.3226],[-70.0127,-33.3014],[-70.0062,-33.286],[-70.0387,-33.2702],[-70.0266,-33.2349],[-70.0552,-33.2258],[-70.0648,-33.205],[-70.0604,-33.194],[-70.0653,-33.1795],[-70.0574,-33.1716],[-70.0672,-33.1553],[-70.0564,-33.149],[-70.052,-33.1366],[-70.0762,-33.12],[-70.0661,-33.1033],[-70.0747,-33.0647],[-70.0929,-33.0517],[-70.1016,-33.0524],[-70.116,-33.0645],[-70.1135,-33.0721],[-70.1291,-33.0805],[-70.1341,-33.094],[-70.1586,-33.0992],[-70.1527,-33.107],[-70.1555,-33.1131],[-70.1824,-33.1019],[-70.1994,-33.1102],[-70.2052,-33.1246],[-70.234,-33.1386],[-70.2262,-33.1494],[-70.2402,-33.1673],[-70.2429,-33.1869],[-70.2373,-33.2016],[-70.2184,-33.2171],[-70.2229,-33.2321],[-70.1982,-33.2723],[-70.1993,-33.2903],[-70.1879,-33.305],[-70.1759,-33.3456],[-70.1772,-33.3557],[-70.1918,-33.3666],[-70.2032,-33.3914],[-70.2177,-33.4006],[-70.219,-33.4122],[-70.2432,-33.436],[-70.2816,-33.4554],[-70.2975,-33.4517],[-70.3046,-33.4645],[-70.3345,-33.4767],[-70.3506,-33.4906],[-70.3727,-33.4828],[-70.3937,-33.4906],[-70.4338,-33.4811],[-70.439,-33.5002],[-70.4803,-33.531],[-70.4886,-33.5591],[-70.5007,-33.5725],[-70.497,-33.6003],[-70.4784,-33.5899],[-70.46,-33.5908],[-70.4607,-33.5815],[-70.4438,-33.5787],[-70.4363,-33.6209],[-70.4278,-33.6199],[-70.4231,-33.6355],[-70.4075,-33.6471],[-70.4321,-33.6646],[-70.4319,-33.6739],[-70.4408,-33.6823],[-70.4334,-33.6956],[-70.4,-33.7123],[-70.4042,-33.7305],[-70.3992,-33.7496],[-70.4073,-33.7765],[-70.4029,-33.8131],[-70.4088,-33.8358],[-70.4272,-33.8516],[-70.4338,-33.8536]]]]}},{"type":"Feature","properties":{"codigo_comuna":"13301","comuna":"Colina","provincia":"Chacabuco","codigo_region":"13","region":"Región Metropolitana de Santiago"},"geometry":{"type":"MultiPolygon","coordinates":[[[[-70.3726,-33.1058],[-70.3878,-33.0888],[-70.3853,-33.0827],[-70.4056,-33.0656],[-70.3958,-33.0487],[-70.3988,-33.0328],[-70.4244,-33.0214],[-70.4359,-33.0229],[-70.452,-33.0393],[-70.4647,-33.0615],[-70.477,-33.0672],[-70.4813,-33.0804],[-70.5089,-33.0886],[-70.5188,-33.0777],[-70.5278,-33.0504],[-70.5525,-33.034],[-70.5463,-33.0137],[-70.5651,-32.9898],[-70.5928,-32.9697],[-70.5914,-32.9597],[-70.5976,-32.9528],[-70.5937,-32.9486],[-70.6043,-32.9421],[-70.6144,-32.9515],[-70.6367,-32.9471],[-70.6755,-32.9597],[-70.6899,-32.9547],[-70.7059,-32.9599],[-70.7203,-32.953],[-70.7498,-32.9686],[-70.7706,-32.9835],[-70.7502,-33.0121],[-70.767,-33.0556],[-70.7471,-33.0695],[-70.7584,-33.1007],[-70.7534,-33.1177],[-70.758,-33.1367],[-70.7446,-33.1447],[-70.7337,-33.1656],[-70.7564,-33.1798],[-70.7919,-33.173],[-70.7833,-33.1807],[-70.719,-33.3244],[-70.7089,-33.3179],[-70.6812,-33.3307],[-70.6578,-33.3284],[-70.6393,-33.3426],[-70.5959,-33.3366],[-70.6046,-33.3104],[-70.5753,-33.2886],[-70.5733,-33.265],[-70.5598,-33.2514],[-70.558,-33.241],[-70.5222,-33.2376],[-70.5084,-33.2187],[-70.4701,-33.2168],[-70.468,-33.1968],[-70.4594,-33.1887],[-70.4616,-33.1769],[-70.4265,-33.1289],[-70.3761,-33.1081],[-70.3726,-33.1058]]]]}},{"type":"Feature","properties":{"codigo_comuna":"13302","comuna":"Lampa","provincia":"Chacabuco","codigo_region":"13","region":"Región Metropolitana de Santiago"},"geometry":{"type":"MultiPolygon","coordinates":[[[[-70.7919,-33.173],[-70.8089,-33.1703],[-70.8272,-33.1846],[-70.8352,-33.1796],[-70.8572,-33.1821],[-70.8498,-33.1986],[-70.8677,-33.2258],[-70.8826,-33.2281],[-70.8878,-33.2235],[-70.8853,-33.2154],[-70.8939,-33.2116],[-70.8931,-33.1798],[-70.931,-33.1861],[-70.9451,-33.1741],[-70.9633,-33.1774],[-70.9751,-33.172],[-70.9937,-33.1796],[-71.0011,-33.2245],[-70.9791,-33.2653],[-70.9755,-33.2843],[-70.9682,-33.2897],[-71.0006,-33.3063],[-71.0035,-33.33],[-70.9881,-33.3475],[-70.9852,-33.3608],[-70.9509,-33.3843],[-70.9098,-33.3682],[-70.8395,-33.3851],[-70.8109,-33.3591],[-70.7979,-33.3377],[-70.7885,-33.3402],[-70.719,-33.3244],[-70.7833,-33.1807],[-70.7919,-33.173]]]]}},{"type":"Feature","properties":{"codigo_comuna":"13303","comuna":"Tiltil","provincia":"Chacabuco","codigo_region":"13","region":"Región Metropolitana de Santiago"},"geometry":{"type":"MultiPolygon","coordinates":[[[[-70.7203,-32.953],[-70.7219,-32.926],[-70.7359,-32.9219],[-70.7715,-32.9355],[-70.794,-32.926],[-70.8147,-32.9305],[-70.8419,-32.9224],[-70.8877,-32.9387],[-70.9072,-32.9364],[-70.9285,-32.9675],[-70.9397,-32.9729],[-70.954,-32.9659],[-70.9856,-32.9786],[-71.0142,-32.9763],[-71.0269,-32.9883],[-71.0266,-33.0058],[-71.0139,-33.0369],[-71.0012,-33.0501],[-71.0298,-33.0842],[-71.015,-33.0954],[-71.0201,-33.1097],[-71.0116,-33.1524],[-71.0047,-33.154],[-70.9896,-33.1767],[-70.9937,-33.1796],[-70.9751,-33.172],[-70.9633,-33.1774],[-70.9451,-33.1741],[-70.931,-33.1861],[-70.8931,-33.1798],[-70.8939,-33.2116],[-70.8853,-33.2154],[-70.8878,-33.2235],[-70.8826,-33.2281],[-70.8677,-33.2258],[-70.8498,-33.1986],[-70.8572,-33.1821],[-70.8352,-33.1796],[-70.8272,-33.1846],[-70.8089,-33.1703],[-70.7975,-33.1698],[-70.7564,-33.1798],[-70.7337,-33.1656],[-70.7446,-33.1447],[-70.758,-33.1367],[-70.7534,-33.1177],[-70.7584,-33.1007],[-70.7471,-33.0695],[-70.767,-33.0556],[-70.7502,-33.0121],[-70.7706,-32.9835],[-70.7377,-32.9653],[-70.7203,-32.953]]]]}},{"type":"Feature","properties":{"codigo_comuna":"13401","comuna":"San Bernardo","provincia":"Maipo","codigo_region":"13","region":"Región Metropolitana de Santiago"},"geometry":{"type":"MultiPolygon","coordinates":[[[[-70.6633,-33.5852],[-70.7012,-33.5737],[-70.6852,-33.5391],[-70.7264,-33.5239],[-70.7669,-33.5713],[-70.7524,-33.5791],[-70.7434,-33.5943],[-70.7542,-33.6033],[-70.7463,-33.6175],[-70.7558,-33.621],[-70.7362,-33.6461],[-70.7379,-33.6563],[-70.7492,-33.6641],[-70.7826,-33.6529],[-70.8027,-33.6698],[-70.7913,-33.6964],[-70.8063,-33.7196],[-70.8243,-33.7211],[-70.8204,-33.737],[-70.8265,-33.7462],[-70.822,-33.7534],[-70.7621,-33.703],[-70.7218,-33.6892],[-70.7087,-33.6671],[-70.6314,-33.6453],[-70.6286,-33.6274],[-70.6447,-33.6272],[-70.6432,-33.6099],[-70.6707,-33.6074],[-70.6633,-33.5852]]]]}},{"type":"Feature","properties":{"codigo_comuna":"13402","comuna":"Buin","provincia":"Maipo","codigo_region":"13","region":"Región Metropolitana de Santiago"},"geometry":{"type":"MultiPolygon","coordinates":[[[[-70.614,-33.7386],[-70.6156,-33.7224],[-70.6268,-33.7076],[-70.6441,-33.6982],[-70.6556,-33.6765],[-70.6504,-33.6627],[-70.6402,-33.6595],[-70.6314,-33.6453],[-70.7087,-33.6671],[-70.7218,-33.6892],[-70.7621,-33.703],[-70.8092,-33.7381],[-70.8258,-33.7625],[-70.8727,-33.8018],[-70.8985,-33.8048],[-70.8703,-33.8093],[-70.8321,-33.8323],[-70.8027,-33.8266],[-70.7843,-33.8347],[-70.7617,-33.8119],[-70.7572,-33.8163],[-70.751,-33.7732],[-70.7374,-33.7744],[-70.7395,-33.7891],[-70.6904,-33.7913],[-70.6879,-33.7591],[-70.6699,-33.7566],[-70.6553,-33.7439],[-70.6334,-33.7487],[-70.623,-33.7374],[-70.614,-33.7386]]]]}},{"type":"Feature","properties":{"codigo_comuna":"13403","comuna":"Calera de Tango","provincia":"Maipo","codigo_region":"13","region":"Región Metropolitana de Santiago"},"geometry":{"type":"MultiPolygon","coordinates":[[[[-70.7669,-33.5713],[-70.7784,-33.569],[-70.7882,-33.5778],[-70.7976,-33.5731],[-70.8104,-33.5963],[-70.8189,-33.5981],[-70.867,-33.6506],[-70.8361,-33.6624],[-70.8181,-33.6423],[-70.8015,-33.6682],[-70.7826,-33.6529],[-70.7418,-33.6632],[-70.7362,-33.6461],[-70.7558,-33.621],[-70.7463,-33.6175],[-70.7542,-33.6033],[-70.7434,-33.5943],[-70.7524,-33.5791],[-70.7637,-33.5738],[-70.7669,-33.5713]]]]}},{"type":"Feature","properties":{"codigo_comuna":"13404","comuna":"Paine","provincia":"Maipo","codigo_region":"13","region":"Región Metropolitana de Santiago"},"geometry":{"type":"MultiPolygon","coordinates":[[[[-70.614,-33.7386],[-70.623,-33.7374],[-70.6334,-33.7487],[-70.6553,-33.7439],[-70.6699,-33.7566],[-70.6879,-33.7591],[-70.6904,-33.7913],[-70.7395,-33.7891],[-70.7374,-33.7744],[-70.751,-33.7732],[-70.7572,-33.8163],[-70.7617,-33.8119],[-70.7843,-33.8347],[-70.8027,-33.8266],[-70.8321,-33.8323],[-70.8703,-33.8093],[-70.8985,-33.8048],[-70.9127,-33.7666],[-70.9224,-33.801],[-70.9618,-33.7939],[-70.9801,-33.7989],[-70.9889,-33.8364],[-70.9801,-33.8441],[-70.9749,-33.9022],[-70.955,-33.9416],[-70.9645,-33.9695],[-70.9079,-33.9771],[-70.8957,-33.9888],[-70.8559,-33.9707],[-70.8457,-33.9562],[-70.8054,-33.945],[-70.7968,-33.9309],[-70.7703,-33.9439],[-70.7581,-33.9428],[-70.744,-33.9243],[-70.7012,-33.9055],[-70.6723,-33.9331],[-70.6548,-33.9366],[-70.6435,-33.9336],[-70.637,-33.9177],[-70.6173,-33.9021],[-70.6001,-33.8944],[-70.5789,-33.8972],[-70.5536,-33.8812],[-70.5173,-33.8877],[-70.5045,-33.8751],[-70.5026,-33.8632],[-70.4741,-33.8624],[-70.4752,-33.8484],[-70.4868,-33.8307],[-70.525,-33.8322],[-70.5368,-33.8096],[-70.535,-33.8003],[-70.5598,-33.7846],[-70.5961,-33.7807],[-70.5993,-33.7601],[-70.6092,-33.7446],[-70.614,-33.7386]]]]}},{"type":"Feature","properties":{"codigo_comuna":"13501","comuna":"Melipilla","provincia":"Melipilla","codigo_region":"13","region":"Región Metropolitana de Santiago"},"geometry":{"type":"MultiPolygon","coordinates":[[[[-70.9481,-33.56],[-70.9601,-33.5476],[-70.9861,-33.5467],[-70.9982,-33.5386],[-71.0592,-33.556],[-71.1073,-33.5478],[-71.1152,-33.5546],[-71.1283,-33.5476],[-71.1796,-33.5542],[-71.2096,-33.542],[-71.231,-33.5627],[-71.2388,-33.5627],[-71.2366,-33.5684],[-71.2421,-33.5662],[-71.2437,-33.5738],[-71.2514,-33.5746],[-71.2511,-33.5828],[-71.2761,-33.5802],[-71.2886,-33.5881],[-71.3322,-33.5852],[-71.3362,-33.6076],[-71.3617,-33.6233],[-71.3807,-33.6221],[-71.3825,-33.6335],[-71.3961,-33.6446],[-71.3997,-33.6632],[-71.4178,-33.6573],[-71.4267,-33.6604],[-71.4376,-33.6794],[-71.4199,-33.6882],[-71.4241,-33.6973],[-71.4201,-33.7082],[-71.3987,-33.7187],[-71.3904,-33.7282],[-71.393,-33.7376],[-71.3585,-33.7465],[-71.3663,-33.7641],[-71.4043,-33.7705],[-71.409,-33.7852],[-71.4395,-33.7869],[-71.4232,-33.7948],[-71.4204,-33.8226],[-71.3717,-33.8911],[-71.3552,-33.8894],[-71.3485,-33.8812],[-71.3512,-33.8714],[-71.3444,-33.868],[-71.3208,-33.8685],[-71.314,-33.8608],[-71.3051,-33.862],[-71.2995,-33.8647],[-71.3006,-33.8814],[-71.2861,-33.9123],[-71.2702,-33.9125],[-71.2587,-33.9268],[-71.229,-33.9375],[-71.2237,-33.952],[-71.2071,-33.9606],[-71.1848,-33.9581],[-71.1786,-33.9635],[-71.1662,-33.9609],[-71.157,-33.9485],[-71.1094,-33.9434],[-71.0944,-33.9261],[-71.0849,-33.8939],[-71.0693,-33.8906],[-71.0332,-33.8994],[-71.0149,-33.8889],[-70.9659,-33.9181],[-70.9749,-33.9022],[-70.9801,-33.8441],[-70.9889,-33.8364],[-70.9801,-33.7989],[-70.9835,-33.7757],[-71.0159,-33.7722],[-71.0408,-33.7551],[-71.0821,-33.7555],[-71.1188,-33.7394],[-71.1197,-33.7333],[-71.0945,-33.7071],[-71.1053,-33.7034],[-71.1007,-33.6929],[-71.114,-33.6831],[-71.1054,-33.6851],[-71.0979,-33.6338],[-71.0734,-33.6278],[-71.0601,-33.6377],[-71.036,-33.6427],[-71.0279,-33.6276],[-71.0104,-33.6247],[-70.9956,-33.6131],[-70.9679,-33.6241],[-70.9353,-33.5881],[-70.9365,-33.5775],[-70.9491,-33.5657],[-70.9481,-33.56]]]]}},{"type":"Feature","properties":{"codigo_comuna":"13502","comuna":"Alhué","provincia":"Melipilla","codigo_region":"13","region":"Región Metropolitana de Santiago"},"geometry":{"type":"MultiPolygon","coordinates":[[[[-70.9659,-33.9181],[-71.0149,-33.8889],[-71.0332,-33.8994],[-71.0693,-33.8906],[-71.0849,-33.8939],[-71.0944,-33.9261],[-71.1094,-33.9434],[-71.157,-33.9485],[-71.1727,-33.9636],[-71.1848,-33.9581],[-71.2071,-33.9606],[-71.2145,-33.9728],[-71.2076,-33.9893],[-71.2307,-34.011],[-71.2793,-34.0183],[-71.3015,-34.0313],[-71.2917,-34.0453],[-71.2707,-34.0524],[-71.2674,-34.0836],[-71.2427,-34.0959],[-71.214,-34.1363],[-71.205,-34.1357],[-71.1857,-34.1572],[-71.147,-34.166],[-71.1179,-34.1634],[-71.0919,-34.1744],[-71.0898,-34.1803],[-71.0719,-34.1839],[-71.0326,-34.1648],[-71.0261,-34.1702],[-70.9707,-34.1725],[-70.9145,-34.1445],[-70.9293,-34.1371],[-70.9415,-34.1059],[-70.9378,-34.0894],[-70.9197,-34.078],[-70.8928,-34.0752],[-70.8883,-34.0391],[-70.8454,-34.0283],[-70.8172,-34.0349],[-70.8088,-34.0258],[-70.8063,-34.0075],[-70.7918,-33.9936],[-70.7977,-33.9752],[-70.8249,-33.9618],[-70.8227,-33.9559],[-70.8324,-33.9518],[-70.8512,-33.9597],[-70.8559,-33.9707],[-70.8957,-33.9888],[-70.9079,-33.9771],[-70.9645,-33.9695],[-70.955,-33.9443],[-70.9617,-33.9346],[-70.9601,-33.9234],[-70.9659,-33.9181]]]]}},{"type":"Feature","properties":{"codigo_comuna":"13503","comuna":"Curacaví","provincia":"Melipilla","codigo_region":"13","region":"Región Metropolitana de Santiago"},"geometry":{"type":"MultiPolygon","coordinates":[[[[-70.9465,-33.3845],[-70.9628,-33.3793],[-70.9852,-33.3608],[-70.9881,-33.3475],[-71.0035,-33.33],[-71.0006,-33.3063],[-70.9682,-33.2897],[-70.9755,-33.2843],[-70.9791,-33.2653],[-71.0011,-33.2245],[-70.9977,-33.1986],[-71.0058,-33.198],[-71.0272,-33.2021],[-71.0274,-33.2166],[-71.0407,-33.2067],[-71.049,-33.2098],[-71.057,-33.2045],[-71.0601,-33.2251],[-71.0751,-33.2306],[-71.0939,-33.2194],[-71.1092,-33.2204],[-71.1199,-33.231],[-71.1402,-33.2377],[-71.1624,-33.2255],[-71.173,-33.2307],[-71.1994,-33.2281],[-71.2164,-33.2353],[-71.2251,-33.2455],[-71.2197,-33.2606],[-71.2268,-33.2684],[-71.2104,-33.3026],[-71.1958,-33.312],[-71.2054,-33.3304],[-71.2116,-33.3307],[-71.2231,-33.3731],[-71.2669,-33.3877],[-71.2772,-33.4021],[-71.2512,-33.4121],[-71.2303,-33.4333],[-71.1942,-33.4404],[-71.1865,-33.4518],[-71.1089,-33.4411],[-71.1014,-33.446],[-71.0592,-33.4302],[-71.0735,-33.4669],[-71.0611,-33.4786],[-71.0635,-33.4927],[-71.0445,-33.5032],[-71.0351,-33.5226],[-71.0132,-33.5393],[-70.9601,-33.5476],[-70.9481,-33.56],[-70.9298,-33.5469],[-70.92,-33.5147],[-70.93,-33.5046],[-70.9199,-33.488],[-70.9318,-33.4749],[-70.9484,-33.469],[-70.9553,-33.4463],[-70.946,-33.4216],[-70.9517,-33.4009],[-70.9465,-33.3845]]]]}},{"type":"Feature","properties":{"codigo_comuna":"13504","comuna":"María Pinto","provincia":"Melipilla","codigo_region":"13","region":"Región Metropolitana de Santiago"},"geometry":{"type":"MultiPolygon","coordinates":[[[[-71.2758,-33.4041],[-71.2973,-33.4129],[-71.3261,-33.4071],[-71.3425,-33.4158],[-71.3361,-33.456],[-71.3418,-33.4649],[-71.3395,-33.4759],[-71.3532,-33.4925],[-71.351,-33.5286],[-71.3316,-33.5354],[-71.3281,-33.5833],[-71.2977,-33.5884],[-71.2761,-33.5802],[-71.2511,-33.5828],[-71.2514,-33.5746],[-71.2437,-33.5738],[-71.2421,-33.5662],[-71.2366,-33.5684],[-71.2388,-33.5627],[-71.231,-33.5627],[-71.2096,-33.542],[-71.1796,-33.5542],[-71.1283,-33.5476],[-71.1152,-33.5546],[-71.1073,-33.5478],[-71.0592,-33.556],[-71.0142,-33.5425],[-71.0351,-33.5226],[-71.0445,-33.5032],[-71.0635,-33.4927],[-71.0611,-33.4786],[-71.0735,-33.4669],[-71.0592,-33.4302],[-71.1014,-33.446],[-71.1089,-33.4411],[-71.1865,-33.4518],[-71.1942,-33.4404],[-71.2303,-33.4333],[-71.2512,-33.4121],[-71.2634,-33.411],[-71.2758,-33.4041]]]]}},{"type":"Feature","properties":{"codigo_comuna":"13505","comuna":"San Pedro","provincia":"Melipilla","codigo_region":"13","region":"Región Metropolitana de Santiago"},"geometry":{"type":"MultiPolygon","coordinates":[[[[-71.4395,-33.7869],[-71.4758,-33.7836],[-71.4952,-33.769],[-71.5214,-33.7789],[-71.5358,-33.7638],[-71.551,-33.7698],[-71.5574,-33.8132],[-71.5563,-33.8738],[-71.5819,-33.8673],[-71.7134,-33.9447],[-71.7115,-33.9675],[-71.6664,-33.9771],[-71.6678,-33.9971],[-71.6164,-34.0031],[-71.5879,-34.0331],[-71.5752,-34.023],[-71.5809,-34.0117],[-71.5657,-33.9994],[-71.5664,-33.9839],[-71.5552,-33.9928],[-71.5143,-33.9948],[-71.4594,-34.0175],[-71.4483,-34.0139],[-71.4328,-34.0319],[-71.4124,-34.0366],[-71.415,-34.0573],[-71.3901,-34.0759],[-71.3877,-34.0685],[-71.3721,-34.0608],[-71.3515,-34.0649],[-71.3405,-34.0506],[-71.3117,-34.0437],[-71.2793,-34.0183],[-71.2307,-34.011],[-71.2076,-33.9893],[-71.2145,-33.9728],[-71.2071,-33.9606],[-71.2237,-33.952],[-71.229,-33.9375],[-71.2406,-33.9373],[-71.2702,-33.9125],[-71.2909,-33.9078],[-71.2896,-33.8968],[-71.3,-33.8834],[-71.2995,-33.8647],[-71.3051,-33.862],[-71.314,-33.8608],[-71.3208,-33.8685],[-71.3444,-33.868],[-71.3512,-33.8714],[-71.3485,-33.8812],[-71.3552,-33.8894],[-71.3717,-33.8911],[-71.4204,-33.8226],[-71.4232,-33.7948],[-71.4395,-33.7869]]]]}},{"type":"Feature","properties":{"codigo_comuna":"13601","comuna":"Talagante","provincia":"Talagante","codigo_region":"13","region":"Región Metropolitana de Santiago"},"geometry":{"type":"MultiPolygon","coordinates":[[[[-70.8487,-33.636],[-70.8741,-33.6311],[-70.9327,-33.6395],[-70.9353,-33.6451],[-70.9606,-33.6426],[-70.9539,-33.6522],[-70.9354,-33.658],[-70.9375,-33.6627],[-71.0025,-33.6938],[-71.0217,-33.7138],[-70.9944,-33.723],[-70.943,-33.7135],[-70.9157,-33.7161],[-70.8984,-33.6968],[-70.8487,-33.7143],[-70.8417,-33.7089],[-70.8243,-33.7211],[-70.8063,-33.7196],[-70.7913,-33.6964],[-70.8118,-33.6448],[-70.8181,-33.6423],[-70.8361,-33.6624],[-70.867,-33.6506],[-70.8487,-33.636]]]]}},{"type":"Feature","properties":{"codigo_comuna":"13602","comuna":"El Monte","provincia":"Talagante","codigo_region":"13","region":"Región Metropolitana de Santiago"},"geometry":{"type":"MultiPolygon","coordinates":[[[[-70.9679,-33.6241],[-70.9956,-33.6131],[-71.0104,-33.6247],[-71.0279,-33.6276],[-71.036,-33.6427],[-71.0842,-33.628],[-71.0979,-33.6338],[-71.1054,-33.6851],[-71.114,-33.6831],[-71.1007,-33.6929],[-71.1053,-33.7034],[-71.0896,-33.7144],[-71.076,-33.7189],[-71.0217,-33.7138],[-71.0025,-33.6938],[-70.9375,-33.6627],[-70.9354,-33.658],[-70.9539,-33.6522],[-70.9664,-33.6327],[-70.9679,-33.6241]]]]}},{"type":"Feature","properties":{"codigo_comuna":"13603","comuna":"Isla de Maipo","provincia":"Talagante","codigo_region":"13","region":"Región Metropolitana de Santiago"},"geometry":{"type":"MultiPolygon","coordinates":[[[[-70.8243,-33.7211],[-70.8417,-33.7089],[-70.8487,-33.7143],[-70.8984,-33.6968],[-70.9157,-33.7161],[-70.943,-33.7135],[-70.9869,-33.7227],[-71.0245,-33.713],[-71.076,-33.7189],[-71.0945,-33.7071],[-71.0977,-33.716],[-71.1165,-33.7284],[-71.1188,-33.7394],[-71.0821,-33.7555],[-71.0408,-33.7551],[-71.0159,-33.7722],[-70.9835,-33.7757],[-70.9801,-33.7989],[-70.9618,-33.7939],[-70.9224,-33.801],[-70.9127,-33.7666],[-70.8985,-33.8048],[-70.8727,-33.8018],[-70.8258,-33.7625],[-70.8209,-33.7265],[-70.8243,-33.7211]]]]}},{"type":"Feature","properties":{"codigo_comuna":"13604","comuna":"Padre Hurtado","provincia":"Talagante","codigo_region":"13","region":"Región Metropolitana de Santiago"},"geometry":{"type":"MultiPolygon","coordinates":[[[[-70.7784,-33.569],[-70.8157,-33.5435],[-70.8051,-33.5358],[-70.8087,-33.5286],[-70.8184,-33.5379],[-70.8416,-33.5334],[-70.8514,-33.5375],[-70.8587,-33.5307],[-70.8883,-33.5267],[-70.9038,-33.5106],[-70.9204,-33.5121],[-70.9298,-33.5469],[-70.9481,-33.56],[-70.9353,-33.5881],[-70.8937,-33.5896],[-70.8868,-33.5791],[-70.8782,-33.5834],[-70.8685,-33.5755],[-70.8556,-33.5758],[-70.8335,-33.5824],[-70.8189,-33.5981],[-70.8104,-33.5963],[-70.7976,-33.5731],[-70.7882,-33.5778],[-70.7784,-33.569]]]]}},{"type":"Feature","properties":{"codigo_comuna":"13605","comuna":"Peñaflor","provincia":"Talagante","codigo_region":"13","region":"Región Metropolitana de Santiago"},"geometry":{"type":"MultiPolygon","coordinates":[[[[-70.8189,-33.5981],[-70.8335,-33.5824],[-70.8685,-33.5755],[-70.8782,-33.5834],[-70.8868,-33.5791],[-70.8937,-33.5896],[-70.9353,-33.5881],[-70.9679,-33.6241],[-70.9606,-33.6426],[-70.9353,-33.6451],[-70.9327,-33.6395],[-70.8741,-33.6311],[-70.8487,-33.636],[-70.8242,-33.6098],[-70.8189,-33.5981]]]]}}]}